{"type": "FeatureCollection", "features": [ {"type": "Feature", "properties": {"norad_id": 40118, "name": "GAOFEN-2", "group": "resource", "lat": -81.5152151581527, "lon": 161.48204109305644, "alt_km": 640.7918275567226, "timestamp": "2025-12-19T14:48:35.901542+00:00", "meta": {"OBJECT_NAME": "GAOFEN-2", "OBJECT_ID": "2014-049A", "EPOCH": "2025-12-19T07:07:08.754240", "MEAN_MOTION": 14.80619799, "ECCENTRICITY": 0.00087248, "INCLINATION": 98.0383, "RA_OF_ASC_NODE": 52.477, "ARG_OF_PERICENTER": 94.8604, "MEAN_ANOMALY": 265.3604, "EPHEMERIS_TYPE": 0, "CLASSIFICATION_TYPE": "U", "NORAD_CAT_ID": 40118, "ELEMENT_SET_NO": 999, "REV_AT_EPOCH": 61261, "BSTAR": 5.3149365e-05, "MEAN_MOTION_DOT": 3.55e-06, "MEAN_MOTION_DDOT": 0}, "tle": {"line1": "1 40118U 14049A   25353.29662910  .00000355  00000+0  53149-4 0  9993", "line2": "2 40118  98.0383  52.4770 0008724  94.8604 265.3604 14.80619799612610"}}, "geometry": {"type": "Point", "coordinates": [161.48204109305644, -81.5152151581527]}}, {"type": "Feature", "properties": {"norad_id": 40143, "name": "YAOGAN-21", "group": "resource", "lat": -35.49549697827045, "lon": -148.52319474098277, "alt_km": 506.962935096798, "timestamp": "2025-12-19T14:48:35.901553+00:00", "meta": {"OBJECT_NAME": "YAOGAN-21", "OBJECT_ID": "2014-053A", "EPOCH": "2025-12-19T07:33:42.492096", "MEAN_MOTION": 15.23739669, "ECCENTRICITY": 0.00091299, "INCLINATION": 97.1753, "RA_OF_ASC_NODE": 36.3426, "ARG_OF_PERICENTER": 20.5724, "MEAN_ANOMALY": 339.5879, "EPHEMERIS_TYPE": 0, "CLASSIFICATION_TYPE": "U", "NORAD_CAT_ID": 40143, "ELEMENT_SET_NO": 999, "REV_AT_EPOCH": 62754, "BSTAR": 9.4674071e-05, "MEAN_MOTION_DOT": 2.21e-05, "MEAN_MOTION_DDOT": 0}, "tle": {"line1": "1 40143U 14053A   25353.31507514  .00002210  00000+0  94674-4 0  9997", "line2": "2 40143  97.1753  36.3426 0009129  20.5724 339.5879 15.23739669627540"}}, "geometry": {"type": "Point", "coordinates": [-148.52319474098277, -35.49549697827045]}}, {"type": "Feature", "properties": {"norad_id": 40275, "name": "YAOGAN-22", "group": "resource", "lat": -53.53787490955105, "lon": 152.0196011933691, "alt_km": 1207.4268862531835, "timestamp": "2025-12-19T14:48:35.901564+00:00", "meta": {"OBJECT_NAME": "YAOGAN-22", "OBJECT_ID": "2014-063A", "EPOCH": "2025-12-19T05:57:45.522720", "MEAN_MOTION": 13.15522927, "ECCENTRICITY": 0.00060054, "INCLINATION": 100.7426, "RA_OF_ASC_NODE": 136.7599, "ARG_OF_PERICENTER": 232.3255, "MEAN_ANOMALY": 127.7312, "EPHEMERIS_TYPE": 0, "CLASSIFICATION_TYPE": "U", "NORAD_CAT_ID": 40275, "ELEMENT_SET_NO": 999, "REV_AT_EPOCH": 53615, "BSTAR": -1.5766651e-05, "MEAN_MOTION_DOT": -5.3e-07, "MEAN_MOTION_DDOT": 0}, "tle": {"line1": "1 40275U 14063A   25353.24844355 -.00000053  00000+0 -15767-4 0  9994", "line2": "2 40275 100.7426 136.7599 0006005 232.3255 127.7312 13.15522927536153"}}, "geometry": {"type": "Point", "coordinates": [152.0196011933691, -53.53787490955105]}}, {"type": "Feature", "properties": {"norad_id": 40298, "name": "ASNARO", "group": "resource", "lat": 18.43261674469422, "lon": -108.13278240573747, "alt_km": 505.2401556566947, "timestamp": "2025-12-19T14:48:35.901574+00:00", "meta": {"OBJECT_NAME": "ASNARO", "OBJECT_ID": "2014-070A", "EPOCH": "2025-12-19T06:12:04.510656", "MEAN_MOTION": 15.19623879, "ECCENTRICITY": 0.00058016, "INCLINATION": 97.3655, "RA_OF_ASC_NODE": 69.0463, "ARG_OF_PERICENTER": 104.706, "MEAN_ANOMALY": 255.4819, "EPHEMERIS_TYPE": 0, "CLASSIFICATION_TYPE": "U", "NORAD_CAT_ID": 40298, "ELEMENT_SET_NO": 999, "REV_AT_EPOCH": 61668, "BSTAR": 0.00031493741, "MEAN_MOTION_DOT": 6.647e-05, "MEAN_MOTION_DDOT": 0}, "tle": {"line1": "1 40298U 14070A   25353.25838554  .00006647  00000+0  31494-3 0  9999", "line2": "2 40298  97.3655  69.0463 0005801 104.7060 255.4819 15.19623879616682"}}, "geometry": {"type": "Point", "coordinates": [-108.13278240573747, 18.43261674469422]}}, {"type": "Feature", "properties": {"norad_id": 40310, "name": "YAOGAN-24", "group": "resource", "lat": 37.90403005894984, "lon": -48.86959312567836, "alt_km": 628.9880193720264, "timestamp": "2025-12-19T14:48:35.901584+00:00", "meta": {"OBJECT_NAME": "YAOGAN-24", "OBJECT_ID": "2014-072A", "EPOCH": "2025-12-19T07:39:52.944192", "MEAN_MOTION": 14.7618879, "ECCENTRICITY": 0.00150268, "INCLINATION": 98.122, "RA_OF_ASC_NODE": 124.4473, "ARG_OF_PERICENTER": 118.2761, "MEAN_ANOMALY": 241.9967, "EPHEMERIS_TYPE": 0, "CLASSIFICATION_TYPE": "U", "NORAD_CAT_ID": 40310, "ELEMENT_SET_NO": 999, "REV_AT_EPOCH": 59718, "BSTAR": 6.5241852e-05, "MEAN_MOTION_DOT": 3.99e-06, "MEAN_MOTION_DDOT": 0}, "tle": {"line1": "1 40310U 14072A   25353.31936278  .00000399  00000+0  65242-4 0  9992", "line2": "2 40310  98.1220 124.4473 0015026 118.2761 241.9967 14.76188790597186"}}, "geometry": {"type": "Point", "coordinates": [-48.86959312567836, 37.90403005894984]}}, {"type": "Feature", "properties": {"norad_id": 40336, "name": "CBERS 4", "group": "resource", "lat": -42.847725568121696, "lon": 59.21015577341993, "alt_km": 781.0344364627827, "timestamp": "2025-12-19T14:48:35.901595+00:00", "meta": {"OBJECT_NAME": "CBERS 4", "OBJECT_ID": "2014-079A", "EPOCH": "2025-12-19T06:38:51.776160", "MEAN_MOTION": 14.35520092, "ECCENTRICITY": 0.00017775, "INCLINATION": 98.3306, "RA_OF_ASC_NODE": 51.0705, "ARG_OF_PERICENTER": 105.9522, "MEAN_ANOMALY": 254.186, "EPHEMERIS_TYPE": 0, "CLASSIFICATION_TYPE": "U", "NORAD_CAT_ID": 40336, "ELEMENT_SET_NO": 999, "REV_AT_EPOCH": 57814, "BSTAR": 5.7965859e-05, "MEAN_MOTION_DOT": 1.25e-06, "MEAN_MOTION_DDOT": 0}, "tle": {"line1": "1 40336U 14079A   25353.27698815  .00000125  00000+0  57966-4 0  9995", "line2": "2 40336  98.3306  51.0705 0001777 105.9522 254.1860 14.35520092578143"}}, "geometry": {"type": "Point", "coordinates": [59.21015577341993, -42.847725568121696]}}, {"type": "Feature", "properties": {"norad_id": 40362, "name": "YAOGAN-26", "group": "resource", "lat": -40.95122239930599, "lon": 0.22446674310299308, "alt_km": 451.78148405809316, "timestamp": "2025-12-19T14:48:35.901605+00:00", "meta": {"OBJECT_NAME": "YAOGAN-26", "OBJECT_ID": "2014-088A", "EPOCH": "2025-12-19T07:11:21.581376", "MEAN_MOTION": 15.39525147, "ECCENTRICITY": 0.00054204, "INCLINATION": 97.0634, "RA_OF_ASC_NODE": 353.741, "ARG_OF_PERICENTER": 10.6122, "MEAN_ANOMALY": 349.5238, "EPHEMERIS_TYPE": 0, "CLASSIFICATION_TYPE": "U", "NORAD_CAT_ID": 40362, "ELEMENT_SET_NO": 999, "REV_AT_EPOCH": 60995, "BSTAR": 0.00042933509, "MEAN_MOTION_DOT": 0.0001681, "MEAN_MOTION_DDOT": 0}, "tle": {"line1": "1 40362U 14088A   25353.29955534  .00016810  00000+0  42934-3 0  9996", "line2": "2 40362  97.0634 353.7410 0005420  10.6122 349.5238 15.39525147609957"}}, "geometry": {"type": "Point", "coordinates": [0.22446674310299308, -40.95122239930599]}}, {"type": "Feature", "properties": {"norad_id": 40376, "name": "SMAP", "group": "resource", "lat": 51.70347633868367, "lon": -171.33009963234173, "alt_km": 676.8826447778811, "timestamp": "2025-12-19T14:48:35.901615+00:00", "meta": {"OBJECT_NAME": "SMAP", "OBJECT_ID": "2015-003A", "EPOCH": "2025-12-19T06:01:27.284736", "MEAN_MOTION": 14.63352829, "ECCENTRICITY": 0.00012198, "INCLINATION": 98.1288, "RA_OF_ASC_NODE": 357.881, "ARG_OF_PERICENTER": 91.6462, "MEAN_ANOMALY": 268.488, "EPHEMERIS_TYPE": 0, "CLASSIFICATION_TYPE": "U", "NORAD_CAT_ID": 40376, "ELEMENT_SET_NO": 999, "REV_AT_EPOCH": 58130, "BSTAR": 8.5490481e-05, "MEAN_MOTION_DOT": 3.95e-06, "MEAN_MOTION_DDOT": 0}, "tle": {"line1": "1 40376U 15003A   25353.25101024  .00000395  00000+0  85490-4 0  9998", "line2": "2 40376  98.1288 357.8810 0001219  91.6462 268.4880 14.63352829581307"}}, "geometry": {"type": "Point", "coordinates": [-171.33009963234173, 51.70347633868367]}}, {"type": "Feature", "properties": {"norad_id": 40536, "name": "KOMPSAT-3A", "group": "resource", "lat": 14.283325448711793, "lon": -33.62422916235163, "alt_km": 435.25965264624574, "timestamp": "2025-12-19T14:48:35.901626+00:00", "meta": {"OBJECT_NAME": "KOMPSAT-3A", "OBJECT_ID": "2015-014A", "EPOCH": "2025-12-19T06:58:17.606784", "MEAN_MOTION": 15.44175505, "ECCENTRICITY": 0.00053679, "INCLINATION": 97.6789, "RA_OF_ASC_NODE": 327.9995, "ARG_OF_PERICENTER": 112.2257, "MEAN_ANOMALY": 247.9561, "EPHEMERIS_TYPE": 0, "CLASSIFICATION_TYPE": "U", "NORAD_CAT_ID": 40536, "ELEMENT_SET_NO": 999, "REV_AT_EPOCH": 59396, "BSTAR": 0.00032774348, "MEAN_MOTION_DOT": 0.00014949, "MEAN_MOTION_DDOT": 0}, "tle": {"line1": "1 40536U 15014A   25353.29048156  .00014949  00000+0  32774-3 0  9994", "line2": "2 40536  97.6789 327.9995 0005367 112.2257 247.9561 15.44175505593964"}}, "geometry": {"type": "Point", "coordinates": [-33.62422916235163, 14.283325448711793]}}, {"type": "Feature", "properties": {"norad_id": 40697, "name": "SENTINEL-2A", "group": "resource", "lat": -81.27292554955329, "lon": 145.43276580371636, "alt_km": 797.1138687246084, "timestamp": "2025-12-19T14:48:35.901636+00:00", "meta": {"OBJECT_NAME": "SENTINEL-2A", "OBJECT_ID": "2015-028A", "EPOCH": "2025-12-19T06:49:51.614688", "MEAN_MOTION": 14.3080732, "ECCENTRICITY": 0.00010429, "INCLINATION": 98.5744, "RA_OF_ASC_NODE": 65.7248, "ARG_OF_PERICENTER": 89.2957, "MEAN_ANOMALY": 270.8345, "EPHEMERIS_TYPE": 0, "CLASSIFICATION_TYPE": "U", "NORAD_CAT_ID": 40697, "ELEMENT_SET_NO": 999, "REV_AT_EPOCH": 54800, "BSTAR": 2.4788522e-05, "MEAN_MOTION_DOT": 2.1e-07, "MEAN_MOTION_DDOT": 0}, "tle": {"line1": "1 40697U 15028A   25353.28462517  .00000021  00000+0  24789-4 0  9991", "line2": "2 40697  98.5744  65.7248 0001042  89.2957 270.8345 14.30807320548008"}}, "geometry": {"type": "Point", "coordinates": [145.43276580371636, -81.27292554955329]}}]}